47282,ONEWEB-0136,2020,109.72,148.0,+,87.88,Active,1,LEO,Russia,UK,Commercial,Communications,Soyuz,1 47282U 20100AA  24309.49708627  .00000113  00000+0  27965-3 0  9993,2 47282  87.8848 108.0725 0001525  70.0500 290.0792 13.12442744187317,13.12442744,0.0001525,LEO
47283,ONEWEB-0137,2020,109.72,148.0,+,87.88,Active,1,LEO,Russia,UK,Commercial,Communications,Soyuz,1 47283U 20100AB  24309.68360939  .00000650  00000+0  17716-2 0  9993,2 47283  87.8841 108.0532 0001248  94.3179 265.8092 13.12436980187240,13.1243698,0.0001248,LEO
47284,ONEWEB-0138,2020,109.72,148.0,+,87.88,Active,1,LEO,Russia,UK,Commercial,Communications,Soyuz,1 47284U 20100AC  24309.51005298  .00000438  00000+0  11822-2 0  9996,2 47284  87.8842 108.1002 0001434  85.5317 274.5975 13.12442049187305,13.12442049,0.0001434,LEO
47285,ONEWEB-0139,2020,109.72,148.0,+,87.88,Active,1,LEO,Russia,UK,Commercial,Communications,Soyuz,1 47285U 20100AD  24309.47288538 -.00000363  00000+0 -10437-2 0  9992,2 47285  87.8849 108.0849 0001462  90.9500 269.1796 13.12442291187373,13.12442291,0.0001462,LEO
47286,ONEWEB-0140,2020,109.72,148.0,+,87.88,Active,1,LEO,Russia,UK,Commercial,Communications,Soyuz,1 47286U 20100AE  24309.50354945  .00000259  00000+0  68392-3 0  9999,2 47286  87.8843 108.0775 0001468  84.0805 276.0490 13.12446750187343,13.1244675,0.0001468,LEO
47287,ONEWEB-0141,2020,109.72,148.0,+,87.88,Active,1,LEO,Russia,UK,Commercial,Communications,Soyuz,1 47287U 20100AF  24309.70131793  .00001344  00000+0  37018-2 0  9992,2 47287  87.8845 108.0514 0001304 101.6482 258.4793 13.12433367187354,13.12433367,0.0001304,LEO
47288,ONEWEB-0142,2020,109.72,148.0,+,87.88,Active,1,LEO,Russia,UK,Commercial,Communications,Soyuz,1 47288U 20100AG  24309.51735004  .00000538  00000+0  14610-2 0  9994,2 47288  87.8845 108.0691 0001227  87.1867 272.9402 13.12441170187326,13.1244117,0.0001227,LEO
47289,ONEWEB-0143,2020,109.72,148.0,+,87.88,Active,1,LEO,Russia,UK,Commercial,Communications,Soyuz,1 47289U 20100AH  24309.47110776 -.00000340  00000+0 -98127-3 0  9992,2 47289  87.8846 108.1003 0001456  91.3426 268.7869 13.12439333187292,13.12439333,0.0001456,LEO
